{
    "links": {
        "self": "http://www.neowsapp.com/rest/v1/neo/3789624?api_key=iIulBulltgU6a56xZRHN4H3l9WmuAYTsLGpBGhQ2"
    },
    "id": "3789624",
    "neo_reference_id": "3789624",
    "name": "(2017 WL13)",
    "designation": "2017 WL13",
    "nasa_jpl_url": "http://ssd.jpl.nasa.gov/sbdb.cgi?sstr=3789624",
    "absolute_magnitude_h": 24.2,
    "estimated_diameter": {
        "kilometers": {
            "estimated_diameter_min": 0.0384197891,
            "estimated_diameter_max": 0.0859092601
        },
        "meters": {
            "estimated_diameter_min": 38.4197891064,
            "estimated_diameter_max": 85.9092601232
        },
        "miles": {
            "estimated_diameter_min": 0.0238729428,
            "estimated_diameter_max": 0.0533815229
        },
        "feet": {
            "estimated_diameter_min": 126.0491808919,
            "estimated_diameter_max": 281.8545369825
        }
    },
    "is_potentially_hazardous_asteroid": false,
    "close_approach_data": [
        {
            "close_approach_date": "1935-10-08",
            "close_approach_date_full": "1935-Oct-08 16:57",
            "epoch_date_close_approach": -1080284580000,
            "relative_velocity": {
                "kilometers_per_second": "14.8300861568",
                "kilometers_per_hour": "53388.310164592",
                "miles_per_hour": "33173.4197242155"
            },
            "miss_distance": {
                "astronomical": "0.3151250376",
                "lunar": "122.5836396264",
                "kilometers": "47142034.408629912",
                "miles": "29292701.8608883056"
            },
            "orbiting_body": "Earth"
        },
        {
            "close_approach_date": "1941-01-09",
            "close_approach_date_full": "1941-Jan-09 05:44",
            "epoch_date_close_approach": -914436960000,
            "relative_velocity": {
                "kilometers_per_second": "17.7474754676",
                "kilometers_per_hour": "63890.9116832308",
                "miles_per_hour": "39699.3278733941"
            },
            "miss_distance": {
                "astronomical": "0.419819403",
                "lunar": "163.309747767",
                "kilometers": "62804088.47347161",
                "miles": "39024650.980303818"
            },
            "orbiting_body": "Earth"
        },
        {
            "close_approach_date": "1994-10-01",
            "close_approach_date_full": "1994-Oct-01 03:39",
            "epoch_date_close_approach": 780982740000,
            "relative_velocity": {
                "kilometers_per_second": "18.8086339877",
                "kilometers_per_hour": "67711.0823557949",
                "miles_per_hour": "42073.0333671327"
            },
            "miss_distance": {
                "astronomical": "0.4479391518",
                "lunar": "174.2483300502",
                "kilometers": "67010742.998886666",
                "miles": "41638544.8945253508"
            },
            "orbiting_body": "Earth"
        },
        {
            "close_approach_date": "2000-01-04",
            "close_approach_date_full": "2000-Jan-04 11:05",
            "epoch_date_close_approach": 946983900000,
            "relative_velocity": {
                "kilometers_per_second": "14.6001308383",
                "kilometers_per_hour": "52560.471017795",
                "miles_per_hour": "32659.0326721405"
            },
            "miss_distance": {
                "astronomical": "0.3185684649",
                "lunar": "123.9231328461",
                "kilometers": "47657163.798209763",
                "miles": "29612788.4209622094"
            },
            "orbiting_body": "Earth"
        },
        {
            "close_approach_date": "2017-12-03",
            "close_approach_date_full": "2017-Dec-03 01:45",
            "epoch_date_close_approach": 1512265500000,
            "relative_velocity": {
                "kilometers_per_second": "6.0066847393",
                "kilometers_per_hour": "21624.065061525",
                "miles_per_hour": "13436.3530933681"
            },
            "miss_distance": {
                "astronomical": "0.0616142401",
                "lunar": "23.9679393989",
                "kilometers": "9217359.080628587",
                "miles": "5727401.3495730206"
            },
            "orbiting_body": "Earth"
        }
    ],
    "orbital_data": {
        "orbit_id": "8",
        "orbit_determination_date": "2018-02-10 07:09:25",
        "first_observation_date": "2017-11-20",
        "last_observation_date": "2017-12-23",
        "data_arc_in_days": 33,
        "observations_used": 65,
        "orbit_uncertainty": "6",
        "minimum_orbit_intersection": ".0452685",
        "jupiter_tisserand_invariant": "3.843",
        "epoch_osculation": "2459000.5",
        "eccentricity": ".4522947610491543",
        "semi_major_axis": "1.875777359439291",
        "inclination": "3.430317190526331",
        "ascending_node_longitude": "218.4998346041791",
        "orbital_period": "938.3618900106948",
        "perihelion_distance": "1.027373086870283",
        "perihelion_argument": "204.022314857679",
        "aphelion_distance": "2.724181632008298",
        "perihelion_time": "2459024.000428803012",
        "mean_anomaly": "350.9841240792634",
        "mean_motion": ".3836472941115469",
        "equinox": "J2000",
        "orbit_class": {
            "orbit_class_type": "AMO",
            "orbit_class_description": "Near-Earth asteroid orbits similar to that of 1221 Amor",
            "orbit_class_range": "1.017 AU < q (perihelion) < 1.3 AU"
        }
    },
    "is_sentry_object": false
}